ONEWEB-0415             
1 51624U 22012C   26198.47657323 -.00000676  00000+0 -19727-2 0  9996
2 51624  87.8817  30.2296 0002148  87.1502 272.9871 13.10371951213259
ONEWEB-0416             
1 51625U 22012D   26198.48845608 -.00000573  00000+0 -16770-2 0  9994
2 51625  87.8813  30.2440 0002170  83.6190 276.5185 13.10375782213294
ONEWEB-0422             
1 51626U 22012E   26197.99437381 -.00000083  00000+0 -24573-3 0  9992
2 51626  87.9157 359.9304 0001959 113.6255 246.5083 13.17648059217731
ONEWEB-0423             
1 51627U 22012F   26198.21543757  .00000008  00000+0 -12830-4 0  9994
2 51627  87.9148 359.8901 0001779  92.9716 267.1619 13.17649035217655
ONEWEB-0425             
1 51628U 22012G   26198.26953579  .00002168  00000+0  61700-2 0  9993
2 51628  87.8823  30.2716 0002047  69.1313 291.0033 13.10404216213269
ONEWEB-0428             
1 51629U 22012H   26198.09648067 -.00000556  00000+0 -16277-2 0  9998
2 51629  87.8811  30.3128 0001806  88.3692 271.7642 13.10374733213205
ONEWEB-0431             
1 51630U 22012J   26198.06581369  .00000632  00000+0  17742-2 0  9999
2 51630  87.8816  30.3117 0002414  96.2500 263.8902 13.10371954213250
ONEWEB-0434             
1 51631U 22012K   26198.50218498 -.00000064  00000+0 -21866-3 0  9993
2 51631  87.8824  30.2511 0001508  69.0683 291.0606 13.10377713213297
ONEWEB-0435             
1 51632U 22012L   26198.50882758  .00000277  00000+0  75601-3 0  9990
2 51632  87.8817  30.2333 0001906  98.5408 261.5935 13.10379107213281
ONEWEB-0436             
1 51633U 22012M   26198.73855135 -.00000025  00000+0 -98739-4 0  9996
2 51633  87.9157 359.7700 0001930  99.3194 260.8156 13.17647669217701
ONEWEB-0438             
1 51634U 22012N   26198.49353544 -.00000695  00000+0 -20282-2 0  9996
2 51634  87.8815  30.2406 0001787  80.6750 279.4579 13.10375378213313
ONEWEB-0439             
1 51635U 22012P   26198.49694102 -.00000323  00000+0 -96244-3 0  9995
2 51635  87.8820  30.2275 0001750  86.6435 273.4892 13.10377047213294
ONEWEB-0442             
1 51636U 22012Q   26197.97160198  .00000040  00000+0  70977-4 0  9991
2 51636  87.9146 359.9527 0001672  74.8239 285.3077 13.17650558217594
ONEWEB-0443             
1 51637U 22012R   26198.67442551  .00000012  00000+0 -29328-5 0  9991
2 51637  87.9149 359.8140 0001546  99.2358 260.8948 13.17647556217736
ONEWEB-0444             
1 51638U 22012S   26198.48674809 -.00000804  00000+0 -23401-2 0  9997
2 51638  87.8819  30.2281 0001663  91.3776 268.7542 13.10374233213301
ONEWEB-0445             
1 51639U 22012T   26198.50711727  .00000251  00000+0  68148-3 0  9994
2 51639  87.8825  30.2141 0001930  86.1012 274.0336 13.10379897213319
ONEWEB-0446             
1 51640U 22012U   26198.48504837 -.00000626  00000+0 -18292-2 0  9997
2 51640  87.8816  30.2456 0002119  82.4561 277.6807 13.10372311213291
ONEWEB-0448             
1 51641U 22012V   26198.49014123 -.00000825  00000+0 -23991-2 0  9996
2 51641  87.8815  30.2400 0001795  88.0952 272.0381 13.10374931213268
ONEWEB-0449             
1 51642U 22012W   26198.49523444 -.00000437  00000+0 -12870-2 0  9991
2 51642  87.8822  30.2264 0001818  68.5245 291.6076 13.10375624213278
ONEWEB-0451             
1 51643U 22012X   26198.43142248  .00000055  00000+0  10755-3 0  9990
2 51643  87.9158 359.8293 0001688  89.4151 270.7174 13.17651175217644
ONEWEB-0452             
1 51644U 22012Y   26198.73348951 -.00000001  00000+0 -36571-4 0  9991
2 51644  87.9148 359.8033 0001568  92.8214 267.3096 13.17647270217692
ONEWEB-0456             
1 51646U 22012AA  26198.27464566  .00000029  00000+0  47723-4 0  9992
2 51646  87.8832  30.2596 0001824  92.6186 267.5151 13.10375412213282
ONEWEB-0457             
1 51647U 22012AB  26198.48152183 -.00000594  00000+0 -17374-2 0  9991
2 51647  87.8816  30.2336 0002080  79.0637 281.0724 13.10371991213311
ONEWEB-0458             
1 51648U 22012AC  26198.50288128  .00000008  00000+0 -13314-4 0  9995
2 51648  87.8823  30.2179 0001626  87.3257 272.8056 13.10376660213279
ONEWEB-0461             
1 51649U 22012AD  26198.37574382  .00000031  00000+0  46383-4 0  9998
2 51649  87.9159 359.8537 0001922  90.1433 269.9919 13.17650227217863
ONEWEB-0463             
1 51650U 22012AE  26198.73686003 -.00000005  00000+0 -45403-4 0  9999
2 51650  87.9148 359.8018 0001968  90.2259 269.9098 13.17650574217698
ONEWEB-0464             
1 51651U 22012AF  26198.50033964 -.00000187  00000+0 -57175-3 0  9996
2 51651  87.8817  30.2394 0001615  94.3583 265.7729 13.10375755213297
ONEWEB-0468             
1 51652U 22012AG  26198.27634720  .00000153  00000+0  40147-3 0  9990
2 51652  87.8815  30.2770 0001709  94.9556 265.1766 13.10375125213245
ONEWEB-0473             
1 51653U 22012AH  26198.49185214 -.00000474  00000+0 -13955-2 0  9998
2 51653  87.8815  30.2363 0001860  90.2042 269.9299 13.10376041213275
ONEWEB-0474             
1 51654U 22012AJ  26198.48335705 -.00000781  00000+0 -22746-2 0  9999
2 51654  87.8822  30.2252 0001607  95.4411 264.6899 13.10373075213268
ONEWEB-0475             
1 51655U 22012AK  26198.74868260  .00000005  00000+0 -20114-4 0  9993
2 51655  87.9150 359.7929 0001499 113.4826 246.6463 13.17648802217715
