OBJECT_NAME,OBJECT_ID,EPOCH,MEAN_MOTION,ECCENTRICITY,INCLINATION,RA_OF_ASC_NODE,ARG_OF_PERICENTER,MEAN_ANOMALY,EPHEMERIS_TYPE,CLASSIFICATION_TYPE,NORAD_CAT_ID,ELEMENT_SET_NO,REV_AT_EPOCH,BSTAR,MEAN_MOTION_DOT,MEAN_MOTION_DDOT
ONEWEB-0415,2022-012C,2026-07-17T11:26:15.927072,13.10371951,.0002148,87.8817,30.2296,87.1502,272.9871,0,U,51624,999,21325,-.19727E-2,-.676E-5,0
ONEWEB-0416,2022-012D,2026-07-17T11:43:22.605312,13.10375782,.000217,87.8813,30.2440,83.6190,276.5185,0,U,51625,999,21329,-.1677E-2,-.573E-5,0
ONEWEB-0422,2022-012E,2026-07-16T23:51:53.897184,13.17648059,.0001959,87.9157,359.9304,113.6255,246.5083,0,U,51626,999,21773,-.24573E-3,-.83E-6,0
ONEWEB-0423,2022-012F,2026-07-17T05:10:13.806048,13.17649035,.0001779,87.9148,359.8901,92.9716,267.1619,0,U,51627,999,21765,-.1283E-4,.8E-7,0
ONEWEB-0425,2022-012G,2026-07-17T06:28:07.892256,13.10404216,.0002047,87.8823,30.2716,69.1313,291.0033,0,U,51628,999,21326,.617E-2,.2168E-4,0
ONEWEB-0428,2022-012H,2026-07-17T02:18:55.929888,13.10374733,.0001806,87.8811,30.3128,88.3692,271.7642,0,U,51629,999,21320,-.16277E-2,-.556E-5,0
ONEWEB-0431,2022-012J,2026-07-17T01:34:46.302816,13.10371954,.0002414,87.8816,30.3117,96.2500,263.8902,0,U,51630,999,21325,.17742E-2,.632E-5,0
ONEWEB-0434,2022-012K,2026-07-17T12:03:08.782272,13.10377713,.0001508,87.8824,30.2511,69.0683,291.0606,0,U,51631,999,21329,-.21866E-3,-.64E-6,0
ONEWEB-0435,2022-012L,2026-07-17T12:12:42.702912,13.10379107,.0001906,87.8817,30.2333,98.5408,261.5935,0,U,51632,999,21328,.75601E-3,.277E-5,0
ONEWEB-0436,2022-012M,2026-07-17T17:43:30.836640,13.17647669,.000193,87.9157,359.7700,99.3194,260.8156,0,U,51633,999,21770,-.98739E-4,-.25E-6,0
ONEWEB-0438,2022-012N,2026-07-17T11:50:41.462016,13.10375378,.0001787,87.8815,30.2406,80.6750,279.4579,0,U,51634,999,21331,-.20282E-2,-.695E-5,0
ONEWEB-0439,2022-012P,2026-07-17T11:55:35.704128,13.10377047,.000175,87.8820,30.2275,86.6435,273.4892,0,U,51635,999,21329,-.96244E-3,-.323E-5,0
ONEWEB-0442,2022-012Q,2026-07-16T23:19:06.411072,13.17650558,.0001672,87.9146,359.9527,74.8239,285.3077,0,U,51636,999,21759,.70977E-4,.4E-6,0
ONEWEB-0443,2022-012R,2026-07-17T16:11:10.364064,13.17647556,.0001546,87.9149,359.8140,99.2358,260.8948,0,U,51637,999,21773,-.29328E-5,.12E-6,0
ONEWEB-0444,2022-012S,2026-07-17T11:40:55.034976,13.10374233,.0001663,87.8819,30.2281,91.3776,268.7542,0,U,51638,999,21330,-.23401E-2,-.804E-5,0
ONEWEB-0445,2022-012T,2026-07-17T12:10:14.932128,13.10379897,.000193,87.8825,30.2141,86.1012,274.0336,0,U,51639,999,21331,.68148E-3,.251E-5,0
ONEWEB-0446,2022-012U,2026-07-17T11:38:28.179168,13.10372311,.0002119,87.8816,30.2456,82.4561,277.6807,0,U,51640,999,21329,-.18292E-2,-.626E-5,0
ONEWEB-0448,2022-012V,2026-07-17T11:45:48.202272,13.10374931,.0001795,87.8815,30.2400,88.0952,272.0381,0,U,51641,999,21326,-.23991E-2,-.825E-5,0
ONEWEB-0449,2022-012W,2026-07-17T11:53:08.255616,13.10375624,.0001818,87.8822,30.2264,68.5245,291.6076,0,U,51642,999,21327,-.1287E-2,-.437E-5,0
ONEWEB-0451,2022-012X,2026-07-17T10:21:14.902272,13.17651175,.0001688,87.9158,359.8293,89.4151,270.7174,0,U,51643,999,21764,.10755E-3,.55E-6,0
ONEWEB-0452,2022-012Y,2026-07-17T17:36:13.493664,13.17647270,.0001568,87.9148,359.8033,92.8214,267.3096,0,U,51644,999,21769,-.36571E-4,-.1E-7,0
ONEWEB-0456,2022-012AA,2026-07-17T06:35:29.385024,13.10375412,.0001824,87.8832,30.2596,92.6186,267.5151,0,U,51646,999,21328,.47723E-4,.29E-6,0
ONEWEB-0457,2022-012AB,2026-07-17T11:33:23.486112,13.10371991,.000208,87.8816,30.2336,79.0637,281.0724,0,U,51647,999,21331,-.17374E-2,-.594E-5,0
ONEWEB-0458,2022-012AC,2026-07-17T12:04:08.942592,13.10376660,.0001626,87.8823,30.2179,87.3257,272.8056,0,U,51648,999,21327,-.13314E-4,.8E-7,0
ONEWEB-0461,2022-012AD,2026-07-17T09:01:04.266048,13.17650227,.0001922,87.9159,359.8537,90.1433,269.9919,0,U,51649,999,21786,.46383E-4,.31E-6,0
ONEWEB-0463,2022-012AE,2026-07-17T17:41:04.706592,13.17650574,.0001968,87.9148,359.8018,90.2259,269.9098,0,U,51650,999,21769,-.45403E-4,-.5E-7,0
ONEWEB-0464,2022-012AF,2026-07-17T12:00:29.344896,13.10375755,.0001615,87.8817,30.2394,94.3583,265.7729,0,U,51651,999,21329,-.57175E-3,-.187E-5,0
ONEWEB-0468,2022-012AG,2026-07-17T06:37:56.398080,13.10375125,.0001709,87.8815,30.2770,94.9556,265.1766,0,U,51652,999,21324,.40147E-3,.153E-5,0
ONEWEB-0473,2022-012AH,2026-07-17T11:48:16.024896,13.10376041,.000186,87.8815,30.2363,90.2042,269.9299,0,U,51653,999,21327,-.13955E-2,-.474E-5,0
ONEWEB-0474,2022-012AJ,2026-07-17T11:36:02.049120,13.10373075,.0001607,87.8822,30.2252,95.4411,264.6899,0,U,51654,999,21326,-.22746E-2,-.781E-5,0
ONEWEB-0475,2022-012AK,2026-07-17T17:58:06.176640,13.17648802,.0001499,87.9150,359.7929,113.4826,246.6463,0,U,51655,999,21771,-.20114E-4,.5E-7,0
